start=new Date('2022-05-05T00:00:00.000Z').valueOf();
sats=[{"FILE":"3429148","GP_ID":"202712834","ARG_OF_PERICENTER":"49.8515","REF_FRAME":"TEME","PERIOD":"95.592","DECAY_DATE":null,"COUNTRY_CODE":"US","PERIAPSIS":"545.973","SITE":"AFETR","RCS_SIZE":"LARGE","MEAN_MOTION":"15.06408342","MEAN_ANOMALY":"310.2628","MEAN_MOTION_DDOT":"0.0000000000000","MEAN_MOTION_DOT":"0.00004191","LAUNCH_DATE":"2020-01-07","TLE_LINE1":"1 44921U 20001H   22124.60646366  .00004191  00000-0  30000-3 0  9992","EPOCH":"2022-05-04T14:33:18.460224","CENTER_NAME":"EARTH","INCLINATION":"53.0540","NORAD_CAT_ID":"44921","OBJECT_ID":"2020-001H","EPHEMERIS_TYPE":"0","OBJECT_TYPE":"PAYLOAD","REV_AT_EPOCH":"12804","MEAN_ELEMENT_THEORY":"SGP4","TIME_SYSTEM":"UTC","RA_OF_ASC_NODE":"174.2686","ELEMENT_SET_NO":"999","SEMIMAJOR_AXIS":"6925.323","BSTAR":"0.00030000000000","OBJECT_NAME":"STARLINK-1103","APOAPSIS":"548.403","TLE_LINE2":"2 44921  53.0540 174.2686 0001754  49.8515 310.2628 15.06408342128042","CLASSIFICATION_TYPE":"U","ECCENTRICITY":"0.00017540"},{"DECAY_DATE":null,"REF_FRAME":"TEME","PERIOD":"95.592","ARG_OF_PERICENTER":"52.8500","GP_ID":"202680184","FILE":"3428698","COUNTRY_CODE":"US","RCS_SIZE":"LARGE","SITE":"AFETR","PERIAPSIS":"545.991","LAUNCH_DATE":"2020-01-07","MEAN_MOTION_DDOT":"0.0000000000000","MEAN_ANOMALY":"307.2648","MEAN_MOTION_DOT":"0.00002020","MEAN_MOTION":"15.06403938","OBJECT_ID":"2020-001J","NORAD_CAT_ID":"44922","INCLINATION":"53.0536","CENTER_NAME":"EARTH","EPOCH":"2022-05-04T10:34:27.268896","TLE_LINE1":"1 44922U 20001J   22124.44059339  .00002020  00000-0  15444-3 0  9997","TIME_SYSTEM":"UTC","REV_AT_EPOCH":"12804","MEAN_ELEMENT_THEORY":"SGP4","OBJECT_TYPE":"PAYLOAD","EPHEMERIS_TYPE":"0","ELEMENT_SET_NO":"999","RA_OF_ASC_NODE":"175.0119","ECCENTRICITY":"0.00017480","CLASSIFICATION_TYPE":"U","TLE_LINE2":"2 44922  53.0536 175.0119 0001748  52.8500 307.2648 15.06403938128043","APOAPSIS":"548.412","BSTAR":"0.00015444000000","OBJECT_NAME":"STARLINK-1104","SEMIMAJOR_AXIS":"6925.336"},{"MEAN_MOTION":"15.06416479","MEAN_MOTION_DDOT":"0.0000000000000","MEAN_MOTION_DOT":"0.00013820","MEAN_ANOMALY":"309.4301","LAUNCH_DATE":"2020-01-07","SITE":"AFETR","RCS_SIZE":"LARGE","PERIAPSIS":"545.896","COUNTRY_CODE":"US","GP_ID":"202714333","ARG_OF_PERICENTER":"50.6850","PERIOD":"95.591","REF_FRAME":"TEME","DECAY_DATE":null,"FILE":"3429148","CLASSIFICATION_TYPE":"U","ECCENTRICITY":"0.00018300","SEMIMAJOR_AXIS":"6925.298","BSTAR":"0.00094444000000","OBJECT_NAME":"STARLINK-1106","APOAPSIS":"548.430","TLE_LINE2":"2 44923  53.0533 174.0221 0001830  50.6850 309.4301 15.06416479128077","ELEMENT_SET_NO":"999","RA_OF_ASC_NODE":"174.0221","OBJECT_TYPE":"PAYLOAD","REV_AT_EPOCH":"12807","MEAN_ELEMENT_THEORY":"SGP4","TIME_SYSTEM":"UTC","EPHEMERIS_TYPE":"0","NORAD_CAT_ID":"44923","OBJECT_ID":"2020-001K","TLE_LINE1":"1 44923U 20001K   22124.66544562  .00013820  00000-0  94444-3 0  9996","EPOCH":"2022-05-04T15:58:14.501568","CENTER_NAME":"EARTH","INCLINATION":"53.0533"},{"OBJECT_TYPE":"PAYLOAD","REV_AT_EPOCH":"12807","MEAN_ELEMENT_THEORY":"SGP4","TIME_SYSTEM":"UTC","EPHEMERIS_TYPE":"0","NORAD_CAT_ID":"44924","OBJECT_ID":"2020-001L","EPOCH":"2022-05-04T15:42:19.577664","TLE_LINE1":"1 44924U 20001L   22124.65439326  .00005147  00000-0  36407-3 0  9995","CENTER_NAME":"EARTH","INCLINATION":"53.0536","CLASSIFICATION_TYPE":"U","ECCENTRICITY":"0.00016340","SEMIMAJOR_AXIS":"6925.322","BSTAR":"0.00036407000000","OBJECT_NAME":"STARLINK-1111","APOAPSIS":"548.319","TLE_LINE2":"2 44924  53.0536 174.0721 0001634  49.0606 311.0524 15.06408539128073","ELEMENT_SET_NO":"999","RA_OF_ASC_NODE":"174.0721","COUNTRY_CODE":"US","GP_ID":"202714080","ARG_OF_PERICENTER":"49.0606","REF_FRAME":"TEME","PERIOD":"95.592","DECAY_DATE":null,"FILE":"3429148","MEAN_MOTION":"15.06408539","MEAN_MOTION_DOT":"0.00005147","MEAN_MOTION_DDOT":"0.0000000000000","MEAN_ANOMALY":"311.0524","LAUNCH_DATE":"2020-01-07","SITE":"AFETR","RCS_SIZE":"LARGE","PERIAPSIS":"546.056"},{"EPHEMERIS_TYPE":"0","OBJECT_TYPE":"PAYLOAD","TIME_SYSTEM":"UTC","REV_AT_EPOCH":"12806","MEAN_ELEMENT_THEORY":"SGP4","CENTER_NAME":"EARTH","EPOCH":"2022-05-04T14:28:00.204096","TLE_LINE1":"1 44925U 20001M   22124.60278014  .00002960  00000-0  21751-3 0  9992","INCLINATION":"53.0531","NORAD_CAT_ID":"44925","OBJECT_ID":"2020-001M","OBJECT_NAME":"STARLINK-1112","BSTAR":"0.00021751000000","SEMIMAJOR_AXIS":"6925.320","TLE_LINE2":"2 44925  53.0531 174.2916 0002000  48.7579 311.3582 15.06409155128061","APOAPSIS":"548.571","CLASSIFICATION_TYPE":"U","ECCENTRICITY":"0.00020000","RA_OF_ASC_NODE":"174.2916","ELEMENT_SET_NO":"999","COUNTRY_CODE":"US","FILE":"3429148","PERIOD":"95.592","REF_FRAME":"TEME","ARG_OF_PERICENTER":"48.7579","GP_ID":"202713335","DECAY_DATE":null,"MEAN_MOTION":"15.06409155","LAUNCH_DATE":"2020-01-07","MEAN_MOTION_DDOT":"0.0000000000000","MEAN_MOTION_DOT":"0.00002960","MEAN_ANOMALY":"311.3582","PERIAPSIS":"545.800","RCS_SIZE":"LARGE","SITE":"AFETR"},{"OBJECT_TYPE":"PAYLOAD","REV_AT_EPOCH":"12875","MEAN_ELEMENT_THEORY":"SGP4","TIME_SYSTEM":"UTC","EPHEMERIS_TYPE":"0","NORAD_CAT_ID":"44926","OBJECT_ID":"2020-001N","TLE_LINE1":"1 44926U 20001N   22124.52166868  .00000645  00000-0  63462-4 0  9991","EPOCH":"2022-05-04T12:31:12.173952","CENTER_NAME":"EARTH","INCLINATION":"53.0013","CLASSIFICATION_TYPE":"U","ECCENTRICITY":"0.00014520","SEMIMAJOR_AXIS":"6927.875","OBJECT_NAME":"STARLINK-1113","BSTAR":"0.00006346200000","APOAPSIS":"550.746","TLE_LINE2":"2 44926  53.0013 174.6747 0001452  65.2101 294.9038 15.05576175128752","ELEMENT_SET_NO":"999","RA_OF_ASC_NODE":"174.6747","COUNTRY_CODE":"US","ARG_OF_PERICENTER":"65.2101","GP_ID":"202657851","REF_FRAME":"TEME","PERIOD":"95.644","DECAY_DATE":null,"FILE":"3428566","MEAN_MOTION":"15.05576175","MEAN_MOTION_DOT":"0.00000645","MEAN_MOTION_DDOT":"0.0000000000000","MEAN_ANOMALY":"294.9038","LAUNCH_DATE":"2020-01-07","SITE":"AFETR","RCS_SIZE":"LARGE","PERIAPSIS":"548.734"},{"INCLINATION":"53.0521","CENTER_NAME":"EARTH","EPOCH":"2022-05-04T09:57:18.756288","TLE_LINE1":"1 44927U 20001P   22124.41480042  .00006980  00000-0  48679-3 0  9993","OBJECT_ID":"2020-001P","NORAD_CAT_ID":"44927","EPHEMERIS_TYPE":"0","TIME_SYSTEM":"UTC","REV_AT_EPOCH":"12804","MEAN_ELEMENT_THEORY":"SGP4","OBJECT_TYPE":"PAYLOAD","RA_OF_ASC_NODE":"175.1317","ELEMENT_SET_NO":"999","TLE_LINE2":"2 44927  53.0521 175.1317 0001829  48.5594 311.5552 15.06416547128040","APOAPSIS":"548.429","BSTAR":"0.00048679000000","OBJECT_NAME":"STARLINK-1114","SEMIMAJOR_AXIS":"6925.298","ECCENTRICITY":"0.00018290","CLASSIFICATION_TYPE":"U","FILE":"3428698","DECAY_DATE":null,"PERIOD":"95.591","REF_FRAME":"TEME","GP_ID":"202679432","ARG_OF_PERICENTER":"48.5594","COUNTRY_CODE":"US","PERIAPSIS":"545.896","RCS_SIZE":"LARGE","SITE":"AFETR","LAUNCH_DATE":"2020-01-07","MEAN_MOTION_DDOT":"0.0000000000000","MEAN_ANOMALY":"311.5552","MEAN_MOTION_DOT":"0.00006980","MEAN_MOTION":"15.06416547"},{"RA_OF_ASC_NODE":"174.8563","ELEMENT_SET_NO":"999","TLE_LINE2":"2 44928  53.0530 174.8563 0001886  43.3489 316.7648 15.06403818128050","APOAPSIS":"548.508","OBJECT_NAME":"STARLINK-1119","BSTAR":"0.00015190000000","SEMIMAJOR_AXIS":"6925.337","ECCENTRICITY":"0.00018860","CLASSIFICATION_TYPE":"U","INCLINATION":"53.0530","CENTER_NAME":"EARTH","EPOCH":"2022-05-04T11:27:32.532768","TLE_LINE1":"1 44928U 20001Q   22124.47745987  .00001982  00000-0  15190-3 0  9991","OBJECT_ID":"2020-001Q","NORAD_CAT_ID":"44928","EPHEMERIS_TYPE":"0","TIME_SYSTEM":"UTC","MEAN_ELEMENT_THEORY":"SGP4","REV_AT_EPOCH":"12805","OBJECT_TYPE":"PAYLOAD","PERIAPSIS":"545.896","RCS_SIZE":"LARGE","SITE":"AFETR","LAUNCH_DATE":"2020-01-07","MEAN_MOTION_DDOT":"0.0000000000000","MEAN_MOTION_DOT":"0.00001982","MEAN_ANOMALY":"316.7648","MEAN_MOTION":"15.06403818","FILE":"3428698","DECAY_DATE":null,"REF_FRAME":"TEME","PERIOD":"95.592","ARG_OF_PERICENTER":"43.3489","GP_ID":"202679682","COUNTRY_CODE":"US"},{"PERIAPSIS":"545.921","RCS_SIZE":"LARGE","SITE":"AFETR","LAUNCH_DATE":"2020-01-07","MEAN_MOTION_DDOT":"0.0000000000000","MEAN_MOTION_DOT":"0.00001388","MEAN_ANOMALY":"303.9588","MEAN_MOTION":"15.06406084","FILE":"3428698","DECAY_DATE":null,"REF_FRAME":"TEME","PERIOD":"95.592","ARG_OF_PERICENTER":"56.1576","GP_ID":"202680434","COUNTRY_CODE":"US","RA_OF_ASC_NODE":"174.9154","ELEMENT_SET_NO":"999","TLE_LINE2":"2 44929  53.0542 174.9154 0001840  56.1576 303.9588 15.06406084128048","APOAPSIS":"548.469","OBJECT_NAME":"STARLINK-1121","BSTAR":"0.00011204000000","SEMIMAJOR_AXIS":"6925.330","ECCENTRICITY":"0.00018400","CLASSIFICATION_TYPE":"U","INCLINATION":"53.0542","CENTER_NAME":"EARTH","TLE_LINE1":"1 44929U 20001R   22124.46271537  .00001388  00000-0  11204-3 0  9998","EPOCH":"2022-05-04T11:06:18.607968","OBJECT_ID":"2020-001R","NORAD_CAT_ID":"44929","EPHEMERIS_TYPE":"0","TIME_SYSTEM":"UTC","REV_AT_EPOCH":"12804","MEAN_ELEMENT_THEORY":"SGP4","OBJECT_TYPE":"PAYLOAD"},{"MEAN_ANOMALY":"311.6445","MEAN_MOTION_DDOT":"0.0000000000000","MEAN_MOTION_DOT":"0.00007288","LAUNCH_DATE":"2020-01-07","MEAN_MOTION":"15.06416682","SITE":"AFETR","RCS_SIZE":"LARGE","PERIAPSIS":"545.946","COUNTRY_CODE":"US","DECAY_DATE":null,"ARG_OF_PERICENTER":"48.4694","GP_ID":"202691890","PERIOD":"95.591","REF_FRAME":"TEME","FILE":"3429030","ECCENTRICITY":"0.00017570","CLASSIFICATION_TYPE":"U","APOAPSIS":"548.379","TLE_LINE2":"2 44930  53.0519 174.4712 0001757  48.4694 311.6445 15.06416682128066","SEMIMAJOR_AXIS":"6925.297","BSTAR":"0.00050743000000","OBJECT_NAME":"STARLINK-1123","ELEMENT_SET_NO":"999","RA_OF_ASC_NODE":"174.4712","REV_AT_EPOCH":"12806","MEAN_ELEMENT_THEORY":"SGP4","TIME_SYSTEM":"UTC","OBJECT_TYPE":"PAYLOAD","EPHEMERIS_TYPE":"0","OBJECT_ID":"2020-001S","NORAD_CAT_ID":"44930","INCLINATION":"53.0519","TLE_LINE1":"1 44930U 20001S   22124.56223854  .00007288  00000-0  50743-3 0  9996","EPOCH":"2022-05-04T13:29:37.409856","CENTER_NAME":"EARTH"}];
